{
  "type": "FeatureCollection",
  "features": [
    {
      "type": "Feature",
      "properties": {
        "norad_id": 66559,
        "name": "STARLINK-35419",
        "group": "last-30-days",
        "lat": -40.09647984352955,
        "lon": 67.29255507844103,
        "alt_km": 417.31029401868545,
        "timestamp": "2025-12-10T21:43:20.862297+00:00",
        "meta_object_name": "STARLINK-35419",
        "meta_object_id": "2025-268C",
        "meta_epoch": "2025-12-10T14:00:03.000384",
        "meta_mean_motion": 15.50620994,
        "meta_eccentricity": 0.00016998,
        "meta_inclination": 43.0002,
        "meta_ra_of_asc_node": 133.803,
        "meta_arg_of_pericenter": 265.0896,
        "meta_mean_anomaly": 25.9623,
        "meta_ephemeris_type": 0,
        "meta_classification_type": "U",
        "meta_norad_cat_id": 66559,
        "meta_element_set_no": 999,
        "meta_rev_at_epoch": 432,
        "meta_bstar": -0.002071458,
        "meta_mean_motion_dot": -0.001202,
        "meta_mean_motion_ddot": 0,
        "tle_line1": "1 66559U 25268C   25344.58336806 -.00120200  00000+0 -20715-2 0  9994",
        "tle_line2": "2 66559  43.0002 133.8030 0001699 265.0896  25.9623 15.50620994  4328"
      },
      "geometry": {
        "type": "Point",
        "coordinates": [
          67.29255507844103,
          -40.09647984352955
        ]
      }
    },
    {
      "type": "Feature",
      "properties": {
        "norad_id": 66560,
        "name": "STARLINK-35411",
        "group": "last-30-days",
        "lat": -39.515765395303184,
        "lon": 69.64922904971586,
        "alt_km": 417.22740485170925,
        "timestamp": "2025-12-10T21:43:20.862312+00:00",
        "meta_object_name": "STARLINK-35411",
        "meta_object_id": "2025-268D",
        "meta_epoch": "2025-12-10T14:00:03.000384",
        "meta_mean_motion": 15.50590534,
        "meta_eccentricity": 0.00016999,
        "meta_inclination": 43,
        "meta_ra_of_asc_node": 133.798,
        "meta_arg_of_pericenter": 270.247,
        "meta_mean_anomaly": 22.7238,
        "meta_ephemeris_type": 0,
        "meta_classification_type": "U",
        "meta_norad_cat_id": 66560,
        "meta_element_set_no": 999,
        "meta_rev_at_epoch": 432,
        "meta_bstar": -0.00092075575,
        "meta_mean_motion_dot": -0.0005401,
        "meta_mean_motion_ddot": 0,
        "tle_line1": "1 66560U 25268D   25344.58336806 -.00054010  00000+0 -92076-3 0  9991",
        "tle_line2": "2 66560  43.0000 133.7980 0001699 270.2470  22.7238 15.50590534  4320"
      },
      "geometry": {
        "type": "Point",
        "coordinates": [
          69.64922904971586,
          -39.515765395303184
        ]
      }
    },
    {
      "type": "Feature",
      "properties": {
        "norad_id": 66561,
        "name": "STARLINK-35305",
        "group": "last-30-days",
        "lat": -38.20326732207485,
        "lon": 74.28014166278497,
        "alt_km": 417.33772716056046,
        "timestamp": "2025-12-10T21:43:20.862325+00:00",
        "meta_object_name": "STARLINK-35305",
        "meta_object_id": "2025-268E",
        "meta_epoch": "2025-12-10T14:00:03.000384",
        "meta_mean_motion": 15.50626398,
        "meta_eccentricity": 0.00016167,
        "meta_inclination": 43.0001,
        "meta_ra_of_asc_node": 133.7885,
        "meta_arg_of_pericenter": 263.8453,
        "meta_mean_anomaly": 32.9598,
        "meta_ephemeris_type": 0,
        "meta_classification_type": "U",
        "meta_norad_cat_id": 66561,
        "meta_element_set_no": 999,
        "meta_rev_at_epoch": 427,
        "meta_bstar": -0.0022552823,
        "meta_mean_motion_dot": -0.00130687,
        "meta_mean_motion_ddot": 0,
        "tle_line1": "1 66561U 25268E   25344.58336806 -.00130687  00000+0 -22553-2 0  9999",
        "tle_line2": "2 66561  43.0001 133.7885 0001616 263.8453  32.9598 15.50626398  4278"
      },
      "geometry": {
        "type": "Point",
        "coordinates": [
          74.28014166278497,
          -38.20326732207485
        ]
      }
    },
    {
      "type": "Feature",
      "properties": {
        "norad_id": 66562,
        "name": "STARLINK-35579",
        "group": "last-30-days",
        "lat": -38.88512334091591,
        "lon": 71.97634162929872,
        "alt_km": 417.2171101810227,
        "timestamp": "2025-12-10T21:43:20.862335+00:00",
        "meta_object_name": "STARLINK-35579",
        "meta_object_id": "2025-268F",
        "meta_epoch": "2025-12-10T14:00:03.000384",
        "meta_mean_motion": 15.50586053,
        "meta_eccentricity": 0.0001685,
        "meta_inclination": 43.0002,
        "meta_ra_of_asc_node": 133.7923,
        "meta_arg_of_pericenter": 269.4817,
        "meta_mean_anomaly": 25.4064,
        "meta_ephemeris_type": 0,
        "meta_classification_type": "U",
        "meta_norad_cat_id": 66562,
        "meta_element_set_no": 999,
        "meta_rev_at_epoch": 432,
        "meta_bstar": -0.00071541641,
        "meta_mean_motion_dot": -0.00042098,
        "meta_mean_motion_ddot": 0,
        "tle_line1": "1 66562U 25268F   25344.58336806 -.00042098  00000+0 -71542-3 0  9991",
        "tle_line2": "2 66562  43.0002 133.7923 0001685 269.4817  25.4064 15.50586053  4329"
      },
      "geometry": {
        "type": "Point",
        "coordinates": [
          71.97634162929872,
          -38.88512334091591
        ]
      }
    },
    {
      "type": "Feature",
      "properties": {
        "norad_id": 66563,
        "name": "STARLINK-35437",
        "group": "last-30-days",
        "lat": -37.484804240088884,
        "lon": 76.51596511557213,
        "alt_km": 417.3112264006804,
        "timestamp": "2025-12-10T21:43:20.862345+00:00",
        "meta_object_name": "STARLINK-35437",
        "meta_object_id": "2025-268G",
        "meta_epoch": "2025-12-10T14:00:03.000384",
        "meta_mean_motion": 15.50625798,
        "meta_eccentricity": 0.00016142,
        "meta_inclination": 43.0002,
        "meta_ra_of_asc_node": 133.7834,
        "meta_arg_of_pericenter": 264.3445,
        "meta_mean_anomaly": 34.3718,
        "meta_ephemeris_type": 0,
        "meta_classification_type": "U",
        "meta_norad_cat_id": 66563,
        "meta_element_set_no": 999,
        "meta_rev_at_epoch": 432,
        "meta_bstar": -0.0021790321,
        "meta_mean_motion_dot": -0.00126346,
        "meta_mean_motion_ddot": 0,
        "tle_line1": "1 66563U 25268G   25344.58336806 -.00126346  00000+0 -21790-2 0  9990",
        "tle_line2": "2 66563  43.0002 133.7834 0001614 264.3445  34.3718 15.50625798  4329"
      },
      "geometry": {
        "type": "Point",
        "coordinates": [
          76.51596511557213,
          -37.484804240088884
        ]
      }
    },
    {
      "type": "Feature",
      "properties": {
        "norad_id": 66564,
        "name": "STARLINK-35358",
        "group": "last-30-days",
        "lat": -36.7215931278218,
        "lon": 78.71697794341338,
        "alt_km": 417.2457231000981,
        "timestamp": "2025-12-10T21:43:20.862355+00:00",
        "meta_object_name": "STARLINK-35358",
        "meta_object_id": "2025-268H",
        "meta_epoch": "2025-12-10T14:00:03.000384",
        "meta_mean_motion": 15.50634584,
        "meta_eccentricity": 0.00016497,
        "meta_inclination": 43.0001,
        "meta_ra_of_asc_node": 133.7789,
        "meta_arg_of_pericenter": 267.1343,
        "meta_mean_anomaly": 33.4975,
        "meta_ephemeris_type": 0,
        "meta_classification_type": "U",
        "meta_norad_cat_id": 66564,
        "meta_element_set_no": 999,
        "meta_rev_at_epoch": 427,
        "meta_bstar": -0.0024347226,
        "meta_mean_motion_dot": -0.00140917,
        "meta_mean_motion_ddot": 0,
        "tle_line1": "1 66564U 25268H   25344.58336806 -.00140917  00000+0 -24347-2 0  9992",
        "tle_line2": "2 66564  43.0001 133.7789 0001649 267.1343  33.4975 15.50634584  4276"
      },
      "geometry": {
        "type": "Point",
        "coordinates": [
          78.71697794341338,
          -36.7215931278218
        ]
      }
    },
    {
      "type": "Feature",
      "properties": {
        "norad_id": 66565,
        "name": "STARLINK-35893",
        "group": "last-30-days",
        "lat": -35.92435424828343,
        "lon": 80.85773391810206,
        "alt_km": 417.1488721244932,
        "timestamp": "2025-12-10T21:43:20.862368+00:00",
        "meta_object_name": "STARLINK-35893",
        "meta_object_id": "2025-268J",
        "meta_epoch": "2025-12-10T14:00:03.000384",
        "meta_mean_motion": 15.50586924,
        "meta_eccentricity": 0.00016918,
        "meta_inclination": 43.0002,
        "meta_ra_of_asc_node": 133.7733,
        "meta_arg_of_pericenter": 268.0484,
        "meta_mean_anomaly": 34.5081,
        "meta_ephemeris_type": 0,
        "meta_classification_type": "U",
        "meta_norad_cat_id": 66565,
        "meta_element_set_no": 999,
        "meta_rev_at_epoch": 432,
        "meta_bstar": -0.00075213209,
        "meta_mean_motion_dot": -0.0004423,
        "meta_mean_motion_ddot": 0,
        "tle_line1": "1 66565U 25268J   25344.58336806 -.00044230  00000+0 -75213-3 0  9993",
        "tle_line2": "2 66565  43.0002 133.7733 0001691 268.0484  34.5081 15.50586924  4320"
      },
      "geometry": {
        "type": "Point",
        "coordinates": [
          80.85773391810206,
          -35.92435424828343
        ]
      }
    }
  ]
}